GPS BIIR-2  (PRN 13)    
1 24876U 97035A   21042.25982932 -.00000020  00000-0  00000-0 0  9993
2 24876  55.4664 174.8340 0047248  57.4903 302.9162  2.00562492172800
GPS BIIR-4  (PRN 20)    
1 26360U 00025A   21042.43310843 -.00000025  00000-0  00000-0 0  9997
2 26360  53.6829  99.2289 0058082 165.6231 301.1805  2.00563367152129
GPS BIIR-5  (PRN 28)    
1 26407U 00040A   21042.58280501 -.00000013  00000-0  00000-0 0  9996
2 26407  55.8143 292.7230 0181829 282.4189 253.4107  2.00564414150807
GPS BIIR-8  (PRN 16)    
1 27663U 03005A   21042.42063176 -.00000012  00000-0  00000-0 0  9994
2 27663  55.8671 292.5239 0120170  36.4420 147.7569  2.00566788132164
GPS BIIR-9  (PRN 21)    
1 27704U 03010A   21042.39845803 -.00000068  00000-0  00000-0 0  9998
2 27704  54.7840  43.2491 0244380 291.4081  90.8659  2.00558040130969
GPS BIIR-10 (PRN 22)    
1 28129U 03058A   21042.45150099 -.00000025  00000-0  00000-0 0  9998
2 28129  53.4932 101.8980 0071573 299.5809  59.7773  2.00570893125642
GPS BIIR-11 (PRN 19)    
1 28190U 04009A   21042.45559642 -.00000101  00000-0  00000-0 0  9995
2 28190  56.2260 353.3699 0087929 102.1745 261.7312  2.00570479123806
GPS BIIR-13 (PRN 02)    
1 28474U 04045A   21042.06259834 -.00000065  00000-0  00000-0 0  9996
2 28474  55.1215  43.2197 0205827 271.2487  84.8233  2.00570978119273
GPS BIIRM-1 (PRN 17)    
1 28874U 05038A   21041.67382781 -.00000101  00000-0  00000-0 0  9998
2 28874  56.3157 350.8067 0137685 269.4393 270.8479  2.00578982112678
GPS BIIRM-2 (PRN 31)    
1 29486U 06042A   21042.52994737  .00000031  00000-0  00000-0 0  9990
2 29486  54.7994 228.8263 0099294  12.7737 345.7869  2.00555833105278
GPS BIIRM-3 (PRN 12)    
1 29601U 06052A   21041.97511040 -.00000007  00000-0  00000-0 0  9994
2 29601  55.8615 291.4645 0081114  66.9891 293.9321  2.00577358104253
GPS BIIRM-4 (PRN 15)    
1 32260U 07047A   21041.29568994 -.00000036  00000-0  00000-0 0  9991
2 32260  53.2153 160.9373 0128709  54.8342 306.3257  2.00575762 97686
GPS BIIRM-5 (PRN 29)    
1 32384U 07062A   21042.34254962 -.00000100  00000-0  00000-0 0  9991
2 32384  56.4186 351.4823 0013117 128.9867  38.7818  2.00562675 96364
GPS BIIRM-6 (PRN 07)    
1 32711U 08012A   21042.19954531  .00000034  00000-0  00000-0 0  9998
2 32711  54.5505 227.8872 0145803 225.7916 133.0007  2.00571326 94620
GPS BIIRM-8 (PRN 05)    
1 35752U 09043A   21041.67259080 -.00000027  00000-0  00000-0 0  9993
2 35752  54.7266 105.3851 0058062  49.2108 311.4131  2.00546957 84208
GPS BIIF-1  (PRN 25)    
1 36585U 10022A   21042.29936802 -.00000003  00000-0  00000-0 0  9994
2 36585  55.1350 287.3166 0096067  53.1290 147.8284  2.00564024 78449
GPS BIIF-2  (PRN 01)    
1 37753U 11036A   21042.39836962 -.00000058  00000-0  00000-0 0  9995
2 37753  56.3377  47.8834 0102048  45.9770 314.1120  2.00562230 70121
GPS BIIF-3  (PRN 24)    
1 38833U 12053A   21041.88103428  .00000031  00000-0  00000-0 0  9992
2 38833  53.5971 223.5163 0107605  40.8563 319.9372  2.00569780 60393
GPS BIIF-4  (PRN 27)    
1 39166U 13023A   21042.24495616 -.00000099  00000-0  00000-0 0  9999
2 39166  55.9650 347.3444 0089258  31.7005 328.8273  2.00563561 56736
GPS BIIF-5  (PRN 30)    
1 39533U 14008A   21040.24995962  .00000060  00000-0  00000-0 0  9995
2 39533  53.7051 229.0416 0049051 199.3744 160.4521  2.00554221 50517
GPS BIIF-6  (PRN 06)    
1 39741U 14026A   21041.52434896 -.00000054  00000-0  00000-0 0  9996
2 39741  56.3075  47.4449 0025109 295.5184  64.2548  2.00560223 49377
GPS BIIF-7  (PRN 09)    
1 40105U 14045A   21040.11667414 -.00000028  00000-0  00000-0 0  9992
2 40105  54.6125 166.4993 0017387 105.4919 254.6580  2.00575379 46916
GPS BIIF-8  (PRN 03)    
1 40294U 14068A   21041.98824494 -.00000023  00000-0  00000-0 0  9990
2 40294  55.4751 107.4027 0030893  45.9891 314.3298  2.00565652 46054
GPS BIIF-9  (PRN 26)    
1 40534U 15013A   21042.12421933  .00000000  00000-0  00000-0 0  9990
2 40534  54.0444 285.0250 0056536  13.1984 347.0200  2.00554022 42677
GPS BIIF-10 (PRN 08)    
1 40730U 15033A   21042.28989121 -.00000099  00000-0  00000-0 0  9994
2 40730  55.4760 346.4042 0061833 356.1043   3.8436  2.00577997 40845
GPS BIIF-11 (PRN 10)    
1 41019U 15062A   21042.33208797 -.00000021  00000-0  00000-0 0  9991
2 41019  55.4690 107.2209 0065874 213.1229 146.5280  2.00563811 38684
GPS BIIF-12 (PRN 32)    
1 41328U 16007A   21042.42371977 -.00000024  00000-0  00000-0 0  9998
2 41328  54.8426 166.9553 0047171 222.3989 137.1966  2.00567649 36741
GPS BIII-1  (PRN 04)    
1 43873U 18109A   21042.52811150 -.00000022  00000-0  00000-0 0  9991
2 43873  55.0240 169.2665 0011663 198.4797 133.5526  2.00573102 15966
GPS BIII-2  (PRN 18)    
1 44506U 19056A   21042.46731376 -.00000059  00000-0  00000-0 0  9991
2 44506  55.4021  48.6435 0011949 185.0621 359.1357  2.00562314 10923
GPS BIII-3  (PRN 23)    
1 45854U 20041A   21041.79511263 -.00000025  00000-0  00000-0 0  9993
2 45854  55.1813 105.9291 0009220 147.1012 213.0197  2.00567145  4879
